{
  "norad_id": 68841,
  "name": "STARLINK-37495",
  "history": [
    {
      "epoch": "2026-05-02T10:00:03.000096Z",
      "apogee_km": 277.4968073742839,
      "perigee_km": 275.8370992683267,
      "latitude_deg": -34.61195470925412,
      "longitude_deg": -59.31054690639289,
      "height_km": 290.3986973937988,
      "semi_major_axis_km": 6654.803953321305,
      "eccentricity": 0.0001247,
      "inclination_deg": 97.2825,
      "raan_deg": 136.0682,
      "arg_perigee_deg": 88.1654,
      "mean_anomaly_deg": 126.4722,
      "mean_motion_rev_day": 15.99189255
    }
  ]
}