{"fetched_at":"2026-05-03T06:27:58Z","count":17151,"tles":[{"name":"STARLINK-37495","line1":"1 68841U 26094C   26122.41670139 -.01739241  90651-3 -36246-2 0  9998","line2":"2 68841  97.2825 136.0682 0001247  88.1654 126.4722 15.99189255  2004","category":"Starlink"}]}